start=new Date('2022-01-05T00:00:00.000Z').valueOf();
sats=[{"TIME_SYSTEM":"UTC","OBJECT_ID":"2021-044AL","EPOCH":"2022-01-04T18:29:38.178528","NORAD_CAT_ID":"48672","EPHEMERIS_TYPE":"0","GP_ID":"193217657","MEAN_MOTION":"15.06398023","CLASSIFICATION_TYPE":"U","FILE":"3264067","ECCENTRICITY":"0.00013760","INCLINATION":"53.0556","OBJECT_NAME":"STARLINK-2705","COUNTRY_CODE":"US","LAUNCH_DATE":"2021-05-26","DECAY_DATE":null,"MEAN_ELEMENT_THEORY":"SGP4","TLE_LINE1":"1 48672U 21044AL  22004.77058077  .00000135  00000-0  27987-4 0  9993","BSTAR":"0.00002798700000","RA_OF_ASC_NODE":"117.2399","PERIOD":"95.592","RCS_SIZE":"LARGE","PERIAPSIS":"546.267","REV_AT_EPOCH":"3400","ARG_OF_PERICENTER":"106.1904","MEAN_ANOMALY":"253.9236","TLE_LINE2":"2 48672  53.0556 117.2399 0001376 106.1904 253.9236 15.06398023 34007","CENTER_NAME":"EARTH","SEMIMAJOR_AXIS":"6925.355","SITE":"AFETR","ELEMENT_SET_NO":"999","MEAN_MOTION_DOT":"0.00000135","APOAPSIS":"548.173","OBJECT_TYPE":"PAYLOAD","MEAN_MOTION_DDOT":"0.0000000000000","REF_FRAME":"TEME"},{"BSTAR":"0.00003678500000","TLE_LINE1":"1 48673U 21044AM  22004.76690176  .00000266  00000-0  36785-4 0  9996","MEAN_ELEMENT_THEORY":"SGP4","DECAY_DATE":null,"LAUNCH_DATE":"2021-05-26","COUNTRY_CODE":"US","OBJECT_NAME":"STARLINK-2711","INCLINATION":"53.0552","ECCENTRICITY":"0.00014670","FILE":"3264067","MEAN_MOTION":"15.06392550","GP_ID":"193216405","CLASSIFICATION_TYPE":"U","NORAD_CAT_ID":"48673","EPHEMERIS_TYPE":"0","EPOCH":"2022-01-04T18:24:20.312064","OBJECT_ID":"2021-044AM","TIME_SYSTEM":"UTC","REF_FRAME":"TEME","MEAN_MOTION_DDOT":"0.0000000000000","OBJECT_TYPE":"PAYLOAD","APOAPSIS":"548.252","MEAN_MOTION_DOT":"0.00000266","ELEMENT_SET_NO":"999","SITE":"AFETR","SEMIMAJOR_AXIS":"6925.371","CENTER_NAME":"EARTH","TLE_LINE2":"2 48673  53.0552 117.2529 0001467 107.2622 252.8527 15.06392550 34009","MEAN_ANOMALY":"252.8527","ARG_OF_PERICENTER":"107.2622","REV_AT_EPOCH":"3400","PERIAPSIS":"546.220","RCS_SIZE":"LARGE","RA_OF_ASC_NODE":"117.2529","PERIOD":"95.593"},{"PERIOD":"95.592","RA_OF_ASC_NODE":"117.8665","RCS_SIZE":"LARGE","REV_AT_EPOCH":"3398","ARG_OF_PERICENTER":"92.8165","PERIAPSIS":"546.190","MEAN_ANOMALY":"267.2995","TLE_LINE2":"2 48674  53.0552 117.8665 0001492  92.8165 267.2995 15.06396908 33982","SEMIMAJOR_AXIS":"6925.358","CENTER_NAME":"EARTH","SITE":"AFETR","MEAN_MOTION_DOT":"-0.00000122","APOAPSIS":"548.256","ELEMENT_SET_NO":"999","OBJECT_TYPE":"PAYLOAD","MEAN_MOTION_DDOT":"0.0000000000000","REF_FRAME":"TEME","TIME_SYSTEM":"UTC","EPOCH":"2022-01-04T15:07:56.877024","OBJECT_ID":"2021-044AN","GP_ID":"193216655","MEAN_MOTION":"15.06396908","CLASSIFICATION_TYPE":"U","EPHEMERIS_TYPE":"0","NORAD_CAT_ID":"48674","FILE":"3264067","INCLINATION":"53.0552","OBJECT_NAME":"STARLINK-2712","ECCENTRICITY":"0.00014920","DECAY_DATE":null,"LAUNCH_DATE":"2021-05-26","COUNTRY_CODE":"US","TLE_LINE1":"1 48674U 21044AN  22004.63051941 -.00000122  00000-0  10682-4 0  9994","MEAN_ELEMENT_THEORY":"SGP4","BSTAR":"0.00001068200000"},{"MEAN_ANOMALY":"260.9951","TLE_LINE2":"2 48675  53.0564 117.8938 0001546  99.1213 260.9951 15.06400784 33983","SEMIMAJOR_AXIS":"6925.346","CENTER_NAME":"EARTH","PERIOD":"95.592","RA_OF_ASC_NODE":"117.8938","RCS_SIZE":"LARGE","REV_AT_EPOCH":"3398","ARG_OF_PERICENTER":"99.1213","PERIAPSIS":"546.140","OBJECT_TYPE":"PAYLOAD","MEAN_MOTION_DDOT":"0.0000000000000","REF_FRAME":"TEME","SITE":"AFETR","MEAN_MOTION_DOT":"-0.00003200","APOAPSIS":"548.282","ELEMENT_SET_NO":"999","GP_ID":"193217407","CLASSIFICATION_TYPE":"U","MEAN_MOTION":"15.06400784","EPHEMERIS_TYPE":"0","NORAD_CAT_ID":"48675","FILE":"3264067","TIME_SYSTEM":"UTC","OBJECT_ID":"2021-044AP","EPOCH":"2022-01-04T15:02:38.245920","TLE_LINE1":"1 48675U 21044AP  22004.62683155 -.00003200  00000-0 -19604-3 0  9995","MEAN_ELEMENT_THEORY":"SGP4","BSTAR":"-0.00019604000000","INCLINATION":"53.0564","OBJECT_NAME":"STARLINK-2737","ECCENTRICITY":"0.00015460","DECAY_DATE":null,"LAUNCH_DATE":"2021-05-26","COUNTRY_CODE":"US"},{"OBJECT_ID":"2021-044AQ","EPOCH":"2022-01-04T14:57:20.207520","TIME_SYSTEM":"UTC","FILE":"3264067","MEAN_MOTION":"15.06386459","GP_ID":"193218157","CLASSIFICATION_TYPE":"U","NORAD_CAT_ID":"48676","EPHEMERIS_TYPE":"0","DECAY_DATE":null,"COUNTRY_CODE":"US","LAUNCH_DATE":"2021-05-26","OBJECT_NAME":"STARLINK-2746","INCLINATION":"53.0556","ECCENTRICITY":"0.00012990","BSTAR":"0.00001619600000","TLE_LINE1":"1 48676U 21044AQ  22004.62315055 -.00000040  00000-0  16196-4 0  9999","MEAN_ELEMENT_THEORY":"SGP4","ARG_OF_PERICENTER":"86.0036","REV_AT_EPOCH":"3398","PERIAPSIS":"546.355","RCS_SIZE":"LARGE","RA_OF_ASC_NODE":"117.9018","PERIOD":"95.593","SEMIMAJOR_AXIS":"6925.390","CENTER_NAME":"EARTH","TLE_LINE2":"2 48676  53.0556 117.9018 0001299  86.0036 274.1101 15.06386459 33984","MEAN_ANOMALY":"274.1101","APOAPSIS":"548.155","MEAN_MOTION_DOT":"-0.00000040","ELEMENT_SET_NO":"999","SITE":"AFETR","REF_FRAME":"TEME","MEAN_MOTION_DDOT":"0.0000000000000","OBJECT_TYPE":"PAYLOAD"},{"RCS_SIZE":"LARGE","RA_OF_ASC_NODE":"117.9144","PERIOD":"95.593","ARG_OF_PERICENTER":"96.3812","REV_AT_EPOCH":"3398","PERIAPSIS":"546.191","TLE_LINE2":"2 48677  53.0555 117.9144 0001514  96.3812 263.7349 15.06391538 33982","MEAN_ANOMALY":"263.7349","SEMIMAJOR_AXIS":"6925.374","CENTER_NAME":"EARTH","SITE":"AFETR","APOAPSIS":"548.288","MEAN_MOTION_DOT":"0.00000002","ELEMENT_SET_NO":"999","OBJECT_TYPE":"PAYLOAD","REF_FRAME":"TEME","MEAN_MOTION_DDOT":"0.0000000000000","OBJECT_ID":"2021-044AR","EPOCH":"2022-01-04T14:52:01.860672","TIME_SYSTEM":"UTC","CLASSIFICATION_TYPE":"U","GP_ID":"193216905","MEAN_MOTION":"15.06391538","NORAD_CAT_ID":"48677","EPHEMERIS_TYPE":"0","FILE":"3264067","OBJECT_NAME":"STARLINK-2719","INCLINATION":"53.0555","ECCENTRICITY":"0.00015140","DECAY_DATE":null,"COUNTRY_CODE":"US","LAUNCH_DATE":"2021-05-26","TLE_LINE1":"1 48677U 21044AR  22004.61946598  .00000002  00000-0  19056-4 0  9996","MEAN_ELEMENT_THEORY":"SGP4","BSTAR":"0.00001905600000"},{"CENTER_NAME":"EARTH","SEMIMAJOR_AXIS":"6925.352","MEAN_ANOMALY":"271.1842","TLE_LINE2":"2 48678  53.0563 117.6429 0001483  88.9317 271.1842 15.06399038 33992","PERIAPSIS":"546.189","REV_AT_EPOCH":"3399","ARG_OF_PERICENTER":"88.9317","RA_OF_ASC_NODE":"117.6429","PERIOD":"95.592","RCS_SIZE":"LARGE","MEAN_MOTION_DDOT":"0.0000000000000","REF_FRAME":"TEME","OBJECT_TYPE":"PAYLOAD","ELEMENT_SET_NO":"999","MEAN_MOTION_DOT":"-0.00002378","APOAPSIS":"548.244","SITE":"AFETR","FILE":"3264067","NORAD_CAT_ID":"48678","EPHEMERIS_TYPE":"0","CLASSIFICATION_TYPE":"U","GP_ID":"193217155","MEAN_MOTION":"15.06399038","TIME_SYSTEM":"UTC","OBJECT_ID":"2021-044AS","EPOCH":"2022-01-04T16:22:15.358944","BSTAR":"-0.00014077000000","MEAN_ELEMENT_THEORY":"SGP4","TLE_LINE1":"1 48678U 21044AS  22004.68212221 -.00002378  00000-0 -14077-3 0  9990","LAUNCH_DATE":"2021-05-26","COUNTRY_CODE":"US","DECAY_DATE":null,"ECCENTRICITY":"0.00014830","INCLINATION":"53.0563","OBJECT_NAME":"STARLINK-2615"},{"SEMIMAJOR_AXIS":"6925.323","CENTER_NAME":"EARTH","TLE_LINE2":"2 48679  53.0565 117.0669 0001309  98.1372 261.9765 15.06408218 34012","MEAN_ANOMALY":"261.9765","ARG_OF_PERICENTER":"98.1372","REV_AT_EPOCH":"3401","PERIAPSIS":"546.282","RCS_SIZE":"LARGE","RA_OF_ASC_NODE":"117.0669","PERIOD":"95.592","REF_FRAME":"TEME","MEAN_MOTION_DDOT":"0.0000000000000","OBJECT_TYPE":"PAYLOAD","APOAPSIS":"548.095","MEAN_MOTION_DOT":"-0.00001584","ELEMENT_SET_NO":"999","SITE":"AFETR","FILE":"3264067","GP_ID":"193217907","MEAN_MOTION":"15.06408218","CLASSIFICATION_TYPE":"U","EPHEMERIS_TYPE":"0","NORAD_CAT_ID":"48679","EPOCH":"2022-01-04T19:28:00.628032","OBJECT_ID":"2021-044AT","TIME_SYSTEM":"UTC","BSTAR":"-0.00008742500000","TLE_LINE1":"1 48679U 21044AT  22004.81111838 -.00001584  00000-0 -87425-4 0  9994","MEAN_ELEMENT_THEORY":"SGP4","DECAY_DATE":null,"LAUNCH_DATE":"2021-05-26","COUNTRY_CODE":"US","INCLINATION":"53.0565","OBJECT_NAME":"STARLINK-2648","ECCENTRICITY":"0.00013090"},{"REF_FRAME":"TEME","MEAN_MOTION_DDOT":"0.0000000000000","OBJECT_TYPE":"PAYLOAD","ELEMENT_SET_NO":"999","APOAPSIS":"548.200","MEAN_MOTION_DOT":"-0.00001410","SITE":"AFETR","CENTER_NAME":"EARTH","SEMIMAJOR_AXIS":"6925.369","TLE_LINE2":"2 48680  53.0555 117.9665 0001395  83.7662 276.3485 15.06393443 33982","MEAN_ANOMALY":"276.3485","PERIAPSIS":"546.268","ARG_OF_PERICENTER":"83.7662","REV_AT_EPOCH":"3398","RCS_SIZE":"LARGE","RA_OF_ASC_NODE":"117.9665","PERIOD":"95.593","BSTAR":"-0.00007581800000","MEAN_ELEMENT_THEORY":"SGP4","TLE_LINE1":"1 48680U 21044AU  22004.60840487 -.00001410  00000-0 -75818-4 0  9993","LAUNCH_DATE":"2021-05-26","COUNTRY_CODE":"US","DECAY_DATE":null,"ECCENTRICITY":"0.00013950","INCLINATION":"53.0555","OBJECT_NAME":"STARLINK-2649","FILE":"3263295","EPHEMERIS_TYPE":"0","NORAD_CAT_ID":"48680","GP_ID":"193182552","CLASSIFICATION_TYPE":"U","MEAN_MOTION":"15.06393443","EPOCH":"2022-01-04T14:36:06.180768","OBJECT_ID":"2021-044AU","TIME_SYSTEM":"UTC"},{"DECAY_DATE":null,"LAUNCH_DATE":"2021-05-26","COUNTRY_CODE":"US","OBJECT_NAME":"STARLINK-2725","INCLINATION":"53.0466","ECCENTRICITY":"0.00011680","BSTAR":"-0.00405000000000","TLE_LINE1":"1 48681U 21044AV  22004.91667824 -.00060125  00000-0 -40500-2 0  9996","MEAN_ELEMENT_THEORY":"SGP4","EPOCH":"2022-01-04T22:00:00.999936","OBJECT_ID":"2021-044AV","TIME_SYSTEM":"UTC","FILE":"3264067","CLASSIFICATION_TYPE":"U","GP_ID":"193216406","MEAN_MOTION":"15.06416633","EPHEMERIS_TYPE":"0","NORAD_CAT_ID":"48681","APOAPSIS":"547.971","MEAN_MOTION_DOT":"-0.00060125","ELEMENT_SET_NO":"999","SITE":"AFETR","REF_FRAME":"TEME","MEAN_MOTION_DDOT":"0.0000000000000","OBJECT_TYPE":"PAYLOAD","ARG_OF_PERICENTER":"101.0909","REV_AT_EPOCH":"358","PERIAPSIS":"546.354","RCS_SIZE":"LARGE","RA_OF_ASC_NODE":"86.6141","PERIOD":"95.591","SEMIMAJOR_AXIS":"6925.298","CENTER_NAME":"EARTH","TLE_LINE2":"2 48681  53.0466  86.6141 0001168 101.0909 261.8809 15.06416633  3580","MEAN_ANOMALY":"261.8809"}];
